ATLANTIS                
1 42737U 98067MS  17180.60940271  .00015713  00000-0  22713-3 0  9994
2 42737  51.6405 336.0659 0008645 344.7256  15.3473 15.56079018  5226
LEMUR-2-ANGELA          
1 42752U 17019B   17180.61914051  .00000475  00000-0  30472-4 0  9998
2 42752  51.6430 340.5643 0011349  30.2034 329.9598 15.27407246  3192
LEMUR-2-JENNYBARNA      
1 42753U 17019C   17180.61892550  .00001304  00000-0  60824-4 0  9994
2 42753  51.6420 340.5628 0011337  30.1575 330.0054 15.27447429  3143
LEMUR-2-ROBMOORE        
1 42754U 17019D   17180.62003165  .00000520  00000-0  32201-4 0  9999
2 42754  51.6431 340.5698 0011393  32.7250 327.4433 15.27336841  3172
LEMUR-2-SPIROVISION     
1 42755U 17019E   17180.61983565  .00000638  00000-0  36507-4 0  9993
2 42755  51.6419 340.5683 0011402  32.6764 327.4918 15.27364153  3066
LITUANICASAT-2          
1 42768U 17036D   17180.59300012  .00001894  00000-0  92210-4 0  9991
2 42768  97.4491 240.2717 0015510 214.6537 145.3688 15.19507586   985
INFLATESAIL             
1 42770U 17036F   17180.52462769  .00093328  00000-0  41869-2 0  9990
2 42770  97.4489 240.2095 0016350 220.5445 139.4574 15.20684974   900
VZLUSAT-1               
1 42790U 17036AB  17180.58784257  .00001346  00000-0  64301-4 0  9994
2 42790  97.4491 240.2785 0010694 225.9128 134.1228 15.20728431   908
